[{"OBJECT_NAME":"STARLINK-34836","OBJECT_ID":"2025-191W","EPOCH":"2026-03-09T15:37:19.177824","MEAN_MOTION":15.05645449,"ECCENTRICITY":0.0002985,"INCLINATION":97.6027,"RA_OF_ASC_NODE":301.4895,"ARG_OF_PERICENTER":66.6441,"MEAN_ANOMALY":293.5099,"EPHEMERIS_TYPE":0,"CLASSIFICATION_TYPE":"U","NORAD_CAT_ID":65399,"ELEMENT_SET_NO":999,"REV_AT_EPOCH":3026,"BSTAR":0.00093942,"MEAN_MOTION_DOT":0.00013519,"MEAN_MOTION_DDOT":0},{"OBJECT_NAME":"ATLAS 28E DEB","OBJECT_ID":"1990-031G","EPOCH":"2026-03-09T13:30:42.820704","MEAN_MOTION":15.01077751,"ECCENTRICITY":0.00267601,"INCLINATION":90.3468,"RA_OF_ASC_NODE":293.9289,"ARG_OF_PERICENTER":41.2715,"MEAN_ANOMALY":319.0536,"EPHEMERIS_TYPE":0,"CLASSIFICATION_TYPE":"U","NORAD_CAT_ID":20575,"ELEMENT_SET_NO":999,"REV_AT_EPOCH":38014,"BSTAR":0.00040945673,"MEAN_MOTION_DOT":5.29e-5,"MEAN_MOTION_DDOT":0}]
